[
    {
        "Altitude(m)": 604983.0528711489,
        "Argument of Periapsis(deg)": 0.0,
        "Eccentricity": 0.0,
        "Inclination(deg)": 60.0,
        "Latitude(deg)": -0.09256601914922165,
        "Longitude(deg)": 50.083916504580344,
        "Mean Anomaly(deg)": -179.99999999999994,
        "RAAN(deg)": 330.0,
        "Satellite Name": "Test1 1463",
        "Satellite Number": 1463,
        "Semi-Major Axis(m)": 6980739.136638005,
        "Time(s)": 0
    },
    {
        "Altitude(m)": 605055.331756721,
        "Argument of Periapsis(deg)": 0.00010418945913296404,
        "Eccentricity": 0.0,
        "Inclination(deg)": 60.0,
        "Latitude(deg)": -0.6329755905691689,
        "Longitude(deg)": 50.35204201652388,
        "Mean Anomaly(deg)": -179.37989385453818,
        "RAAN(deg)": 329.9995799508602,
        "Satellite Name": "Test1 1463",
        "Satellite Number": 1463,
        "Semi-Major Axis(m)": 6980739.136638005,
        "Time(s)": 10
    },
    {
        "Altitude(m)": 605130.8196992403,
        "Argument of Periapsis(deg)": 0.0002083789182659281,
        "Eccentricity": 0.0,
        "Inclination(deg)": 60.0,
        "Latitude(deg)": -1.1733542435395687,
        "Longitude(deg)": 50.62022515865618,
        "Mean Anomaly(deg)": -178.75978770907636,
        "RAAN(deg)": 329.9991599017205,
        "Satellite Name": "Test1 1463",
        "Satellite Number": 1463,
        "Semi-Major Axis(m)": 6980739.136638005,
        "Time(s)": 20
    },
    {
        "Altitude(m)": 605209.5057356408,
        "Argument of Periapsis(deg)": 0.00031256837739889213,
        "Eccentricity": 0.0,
        "Inclination(deg)": 60.0,
        "Latitude(deg)": -1.7136848975638235,
        "Longitude(deg)": 50.88852031876713,
        "Mean Anomaly(deg)": -178.13968156361454,
        "RAAN(deg)": 329.9987398525808,
        "Satellite Name": "Test1 1463",
        "Satellite Number": 1463,
        "Semi-Major Axis(m)": 6980739.136638005,
        "Time(s)": 30
    },
    {
        "Altitude(m)": 605291.3773789336,
        "Argument of Periapsis(deg)": 0.0004167578365318562,
        "Eccentricity": 0.0,
        "Inclination(deg)": 60.0,
        "Latitude(deg)": -2.2539504540952806,
        "Longitude(deg)": 51.156982452433134,
        "Mean Anomaly(deg)": -177.51957541815267,
        "RAAN(deg)": 329.998319803441,
        "Satellite Name": "Test1 1463",
        "Satellite Number": 1463,
        "Semi-Major Axis(m)": 6980739.136638005,
        "Time(s)": 40
    },
    {
        "Altitude(m)": 605376.4206215217,
        "Argument of Periapsis(deg)": 0.0005209472956648203,
        "Eccentricity": 0.0,
        "Inclination(deg)": 60.0,
        "Latitude(deg)": -2.7941337866264835,
        "Longitude(deg)": 51.42566610643757,
        "Mean Anomaly(deg)": -176.89946927269082,
        "RAAN(deg)": 329.9978997543013,
        "Satellite Name": "Test1 1463",
        "Satellite Number": 1463,
        "Semi-Major Axis(m)": 6980739.136638005,
        "Time(s)": 50
    },
    {
        "Altitude(m)": 605464.6199392906,
        "Argument of Periapsis(deg)": 0.0006251367547977843,
        "Eccentricity": 0.0,
        "Inclination(deg)": 60.0,
        "Latitude(deg)": -3.3342177307366363,
        "Longitude(deg)": 51.69462595514692,
        "Mean Anomaly(deg)": -176.27936312722898,
        "RAAN(deg)": 329.99747970516154,
        "Satellite Name": "Test1 1463",
        "Satellite Number": 1463,
        "Semi-Major Axis(m)": 6980739.136638005,
        "Time(s)": 60
    },
    {
        "Altitude(m)": 605555.9582963972,
        "Argument of Periapsis(deg)": 0.0007293262139307483,
        "Eccentricity": 0.0,
        "Inclination(deg)": 60.0,
        "Latitude(deg)": -3.874185074086146,
        "Longitude(deg)": 51.963917337000154,
        "Mean Anomaly(deg)": -175.6592569817672,
        "RAAN(deg)": 329.9970596560218,
        "Satellite Name": "Test1 1463",
        "Satellite Number": 1463,
        "Semi-Major Axis(m)": 6980739.136638005,
        "Time(s)": 70
    },
    {
        "Altitude(m)": 605650.417150855,
        "Argument of Periapsis(deg)": 0.0008335156730637124,
        "Eccentricity": 0.0,
        "Inclination(deg)": 60.0,
        "Latitude(deg)": -4.414018546345401,
        "Longitude(deg)": 52.2335952782651,
        "Mean Anomaly(deg)": -175.0391508363053,
        "RAAN(deg)": 329.99663960688207,
        "Satellite Name": "Test1 1463",
        "Satellite Number": 1463,
        "Semi-Major Axis(m)": 6980739.136638005,
        "Time(s)": 80
    },
    {
        "Altitude(m)": 605747.976460818,
        "Argument of Periapsis(deg)": 0.0009377051321966765,
        "Eccentricity": 0.0,
        "Inclination(deg)": 60.0,
        "Latitude(deg)": -4.953700809041335,
        "Longitude(deg)": 52.50371502983778,
        "Mean Anomaly(deg)": -174.41904469084358,
        "RAAN(deg)": 329.9962195577423,
        "Satellite Name": "Test1 1463",
        "Satellite Number": 1463,
        "Semi-Major Axis(m)": 6980739.136638005,
        "Time(s)": 90
    },
    {
        "Altitude(m)": 605848.6146916342,
        "Argument of Periapsis(deg)": 0.0010418945913296407,
        "Eccentricity": 0.0,
        "Inclination(deg)": 60.0,
        "Latitude(deg)": -5.493214445310395,
        "Longitude(deg)": 52.774332604241295,
        "Mean Anomaly(deg)": -173.79893854538173,
        "RAAN(deg)": 329.99579950860254,
        "Satellite Name": "Test1 1463",
        "Satellite Number": 1463,
        "Semi-Major Axis(m)": 6980739.136638005,
        "Time(s)": 100
    },
    {
        "Altitude(m)": 605952.3088236226,
        "Argument of Periapsis(deg)": 0.0011460840504626045,
        "Eccentricity": 0.0,
        "Inclination(deg)": 60.0,
        "Latitude(deg)": -6.032541949544345,
        "Longitude(deg)": 53.045503799978036,
        "Mean Anomaly(deg)": -173.1788323999199,
        "RAAN(deg)": 329.99537945946287,
        "Satellite Name": "Test1 1463",
        "Satellite Number": 1463,
        "Semi-Major Axis(m)": 6980739.136638005,
        "Time(s)": 110
    },
    {
        "Altitude(m)": 606059.0343605701,
        "Argument of Periapsis(deg)": 0.0012502735095955685,
        "Eccentricity": 0.0,
        "Inclination(deg)": 60.0,
        "Latitude(deg)": -6.5716657169129045,
        "Longitude(deg)": 53.31728473901251,
        "Mean Anomaly(deg)": -172.55872625445807,
        "RAAN(deg)": 329.9949594103231,
        "Satellite Name": "Test1 1463",
        "Satellite Number": 1463,
        "Semi-Major Axis(m)": 6980739.136638005,
        "Time(s)": 120
    },
    {
        "Altitude(m)": 606168.7653389786,
        "Argument of Periapsis(deg)": 0.0013544629687285324,
        "Eccentricity": 0.0,
        "Inclination(deg)": 60.0,
        "Latitude(deg)": -7.110568032749588,
        "Longitude(deg)": 53.589732404539454,
        "Mean Anomaly(deg)": -171.93862010899622,
        "RAAN(deg)": 329.99453936118334,
        "Satellite Name": "Test1 1463",
        "Satellite Number": 1463,
        "Semi-Major Axis(m)": 6980739.136638005,
        "Time(s)": 130
    },
    {
        "Altitude(m)": 606281.4743380146,
        "Argument of Periapsis(deg)": 0.0014586524278614966,
        "Eccentricity": 0.0,
        "Inclination(deg)": 60.0,
        "Latitude(deg)": -7.649231061789168,
        "Longitude(deg)": 53.862903666193894,
        "Mean Anomaly(deg)": -171.31851396353437,
        "RAAN(deg)": 329.99411931204355,
        "Satellite Name": "Test1 1463",
        "Satellite Number": 1463,
        "Semi-Major Axis(m)": 6980739.136638005,
        "Time(s)": 140
    },
    {
        "Altitude(m)": 606397.1324901767,
        "Argument of Periapsis(deg)": 0.0015628418869944607,
        "Eccentricity": 0.0,
        "Inclination(deg)": 60.0,
        "Latitude(deg)": -8.187636837237706,
        "Longitude(deg)": 54.1368558184783,
        "Mean Anomaly(deg)": -170.69840781807255,
        "RAAN(deg)": 329.9936992629039,
        "Satellite Name": "Test1 1463",
        "Satellite Number": 1463,
        "Semi-Major Axis(m)": 6980739.136638005,
        "Time(s)": 150
    },
    {
        "Altitude(m)": 606515.7094926691,
        "Argument of Periapsis(deg)": 0.0016670313461274247,
        "Eccentricity": 0.0,
        "Inclination(deg)": 60.0,
        "Latitude(deg)": -8.725767249662304,
        "Longitude(deg)": 54.411647119562744,
        "Mean Anomaly(deg)": -170.0783016726107,
        "RAAN(deg)": 329.99327921376414,
        "Satellite Name": "Test1 1463",
        "Satellite Number": 1463,
        "Semi-Major Axis(m)": 6980739.136638005,
        "Time(s)": 160
    },
    {
        "Altitude(m)": 606637.1736195042,
        "Argument of Periapsis(deg)": 0.0017712208052603888,
        "Eccentricity": 0.0,
        "Inclination(deg)": 60.0,
        "Latitude(deg)": -9.263604035687534,
        "Longitude(deg)": 54.687335817614844,
        "Mean Anomaly(deg)": -169.45819552714886,
        "RAAN(deg)": 329.99285916462435,
        "Satellite Name": "Test1 1463",
        "Satellite Number": 1463,
        "Semi-Major Axis(m)": 6980739.136638005,
        "Time(s)": 170
    },
    {
        "Altitude(m)": 606761.4917342712,
        "Argument of Periapsis(deg)": 0.001875410264393353,
        "Eccentricity": 0.0,
        "Inclination(deg)": 60.0,
        "Latitude(deg)": -9.801128766479001,
        "Longitude(deg)": 54.9639806904342,
        "Mean Anomaly(deg)": -168.838089381687,
        "RAAN(deg)": 329.9924391154846,
        "Satellite Name": "Test1 1463",
        "Satellite Number": 1463,
        "Semi-Major Axis(m)": 6980739.136638005,
        "Time(s)": 180
    },
    {
        "Altitude(m)": 606888.6293036077,
        "Argument of Periapsis(deg)": 0.0019795997235263173,
        "Eccentricity": 0.0,
        "Inclination(deg)": 60.0,
        "Latitude(deg)": -10.338322836000478,
        "Longitude(deg)": 55.24164158554872,
        "Mean Anomaly(deg)": -168.2179832362252,
        "RAAN(deg)": 329.99201906634494,
        "Satellite Name": "Test1 1463",
        "Satellite Number": 1463,
        "Semi-Major Axis(m)": 6980739.136638005,
        "Time(s)": 190
    }
]